{"type": "FeatureCollection", "features": [ {"type": "Feature", "properties": {"norad_id": 66909, "name": "1998-067XV", "group": "stations", "lat": -50.94114827438628, "lon": 92.17960949236974, "alt_km": 418.8472461477395, "timestamp": "2025-12-07T05:38:08.702299+00:00", "meta": {"OBJECT_NAME": "1998-067XV", "OBJECT_ID": "1998-067XV", "EPOCH": "2025-12-06T14:31:18.459264", "MEAN_MOTION": 15.50547779, "ECCENTRICITY": 0.00052426, "INCLINATION": 51.6296, "RA_OF_ASC_NODE": 172.8258, "ARG_OF_PERICENTER": 193.8867, "MEAN_ANOMALY": 166.1979, "EPHEMERIS_TYPE": 0, "CLASSIFICATION_TYPE": "U", "NORAD_CAT_ID": 66909, "ELEMENT_SET_NO": 999, "REV_AT_EPOCH": 66, "BSTAR": 0.0015899979, "MEAN_MOTION_DOT": 0.00093198, "MEAN_MOTION_DDOT": 0}, "tle": {"line1": "1 66909U 98067XV  25340.60507476  .00093198  00000+0  15900-2 0  9995", "line2": "2 66909  51.6296 172.8258 0005242 193.8867 166.1979 15.50547779   660"}}, "geometry": {"type": "Point", "coordinates": [92.17960949236974, -50.94114827438628]}}, {"type": "Feature", "properties": {"norad_id": 66910, "name": "1998-067XW", "group": "stations", "lat": -49.906769654792534, "lon": 99.44735145205019, "alt_km": 419.4547911411537, "timestamp": "2025-12-07T05:38:08.702319+00:00", "meta": {"OBJECT_NAME": "1998-067XW", "OBJECT_ID": "1998-067XW", "EPOCH": "2025-12-06T14:30:13.476960", "MEAN_MOTION": 15.50789302, "ECCENTRICITY": 0.00061597, "INCLINATION": 51.6294, "RA_OF_ASC_NODE": 172.8206, "ARG_OF_PERICENTER": 179.5377, "MEAN_ANOMALY": 180.5619, "EPHEMERIS_TYPE": 0, "CLASSIFICATION_TYPE": "U", "NORAD_CAT_ID": 66910, "ELEMENT_SET_NO": 999, "REV_AT_EPOCH": 66, "BSTAR": 0.0013604594, "MEAN_MOTION_DOT": 0.0008025, "MEAN_MOTION_DDOT": 0}, "tle": {"line1": "1 66910U 98067XW  25340.60432265  .00080250  00000+0  13605-2 0  9995", "line2": "2 66910  51.6294 172.8206 0006159 179.5377 180.5619 15.50789302   669"}}, "geometry": {"type": "Point", "coordinates": [99.44735145205019, -49.906769654792534]}}, {"type": "Feature", "properties": {"norad_id": 66911, "name": "1998-067XX", "group": "stations", "lat": -49.72368654937555, "lon": 100.45194051485227, "alt_km": 419.16289480378055, "timestamp": "2025-12-07T05:38:08.702335+00:00", "meta": {"OBJECT_NAME": "1998-067XX", "OBJECT_ID": "1998-067XX", "EPOCH": "2025-12-06T14:30:06.081984", "MEAN_MOTION": 15.50869311, "ECCENTRICITY": 0.00060509, "INCLINATION": 51.6293, "RA_OF_ASC_NODE": 172.8204, "ARG_OF_PERICENTER": 180.1037, "MEAN_ANOMALY": 179.9952, "EPHEMERIS_TYPE": 0, "CLASSIFICATION_TYPE": "U", "NORAD_CAT_ID": 66911, "ELEMENT_SET_NO": 999, "REV_AT_EPOCH": 65, "BSTAR": 0.0015610395, "MEAN_MOTION_DOT": 0.00092556, "MEAN_MOTION_DDOT": 0}, "tle": {"line1": "1 66911U 98067XX  25340.60423706  .00092556  00000+0  15610-2 0  9996", "line2": "2 66911  51.6293 172.8204 0006050 180.1037 179.9952 15.50869311   658"}}, "geometry": {"type": "Point", "coordinates": [100.45194051485227, -49.72368654937555]}}, {"type": "Feature", "properties": {"norad_id": 66912, "name": "1998-067XY", "group": "stations", "lat": -51.2586959776107, "lon": 88.76804556203697, "alt_km": 419.4779024389527, "timestamp": "2025-12-07T05:38:08.702351+00:00", "meta": {"OBJECT_NAME": "1998-067XY", "OBJECT_ID": "1998-067XY", "EPOCH": "2025-12-06T14:31:44.195232", "MEAN_MOTION": 15.50339462, "ECCENTRICITY": 0.00052344, "INCLINATION": 51.6295, "RA_OF_ASC_NODE": 172.8274, "ARG_OF_PERICENTER": 193.0919, "MEAN_ANOMALY": 166.9935, "EPHEMERIS_TYPE": 0, "CLASSIFICATION_TYPE": "U", "NORAD_CAT_ID": 66912, "ELEMENT_SET_NO": 999, "REV_AT_EPOCH": 65, "BSTAR": 0.0011669061, "MEAN_MOTION_DOT": 0.00067549, "MEAN_MOTION_DDOT": 0}, "tle": {"line1": "1 66912U 98067XY  25340.60537263  .00067549  00000+0  11669-2 0  9995", "line2": "2 66912  51.6295 172.8274 0005234 193.0919 166.9935 15.50339462   659"}}, "geometry": {"type": "Point", "coordinates": [88.76804556203697, -51.2586959776107]}}]}